AOR-E (EGNOS/PRN 120)   
1 24307U 96053A   11154.43911832 -.00000116  00000-0  10000-3 0  7634
2 24307   0.0842 358.9402 0005405  61.7396 333.4349  1.00271587 53973
IOR-W (EGNOS/PRN 126)   
1 25153U 98006B   11156.93179958  .00000143  00000-0  10000-3 0  6296
2 25153   0.4595 347.4357 0004959  75.3836 191.3999  1.00275904 48879
ARTEMIS (EGNOS/PRN 124) 
1 26863U 01029A   11153.91569265  .00000128  00000-0  10000-3 0  1145
2 26863   9.1182  59.4104 0004970  40.5035 142.1874  1.00279610 37326
MTSAT-1R (MSAS/PRN 129) 
1 28622U 05006A   11156.55053457 -.00000277  00000-0  10000-3 0  5019
2 28622   0.0595  87.0569 0001086 165.6427 339.1771  1.00269779 22952
IOR (GAGAN/PRN 127)     
1 28628U 05009A   11154.44398523 -.00000253  00000-0  10000-3 0  8770
2 28628   2.4357 337.6785 0002728  93.8102 123.3901  1.00270047 22600
ANIK F1R (WAAS/PRN 138) 
1 28868U 05036A   11154.54468609 -.00000067  00000-0  10000-3 0  8762
2 28868   0.0412  46.0432 0001579  42.4936 251.9147  1.00272434 21072
GALAXY 15 (WAAS/PRN 135)
1 28884U 05041A   11155.28034344  .00000085  00000-0  10000-3 0  1440
2 28884   0.0084 352.2379 0001457 121.7666 106.2095  1.00273770 20676
MTSAT-2 (MSAS/PRN 137)  
1 28937U 06004A   11152.81535199 -.00000233  00000-0  10000-3 0  9623
2 28937   0.0530 112.8528 0002621 292.6348 282.9520  1.00268686 19398
INMAR 4F3 (WAAS/PRN 133)
1 33278U 08039A   11156.38848718 -.00000139  00000-0  10000-3 0  2276
2 33278   3.0048 339.5577 0002661  96.6819 219.4510  1.00271561 10278
QZS-1 (PRN 183/193)     
1 37158U 10045A   11157.85051022 -.00000082  00000-0  10000-3 0  1180
2 37158  40.8437 191.2563 0759094 269.7992 235.9161  1.00292054  2717
GSAT 8 (GAGAN/PRN 128)  
1 37605U 11022A   11155.90000000  .00000091  00000-0  00000+0 0   191
2 37605   0.0900  97.6880 0001605 196.3280 338.0520  1.00262801   181
